NORAD_CAT_ID,OBJECT_NAME,OBJECT_TYPE,EPOCH,MEAN_MOTION,ECCENTRICITY,INCLINATION,RA_OF_ASC_NODE,ARG_OF_PERICENTER,MEAN_ANOMALY,BSTAR,MEAN_MOTION_DOT,MEAN_MOTION_DDOT,TLE_LINE0,TLE_LINE1,TLE_LINE2,SEMIMAJOR_AXIS,PERIOD,APOGEE,PERIGEE,DECAYED
52628.0,STARLINK-4001,PAYLOAD,2023-05-01 11:35:12,15.08835509,3.88e-05,53.2161,287.2546,111.6214,248.482,2.2289e-05,6.7e-07,0.0,0 STARLINK-4001,1 52628U 22052AG  23121.48278206  .00000067  00000-0  22289-4 0  9990,2 52628  53.2161 287.2546 0000388 111.6214 248.4820 15.08835509 53293,6917.894,95.438,540.028,539.491,0.0
52628.0,STARLINK-4001,PAYLOAD,2023-05-01 17:56:44,15.08839385,4.17e-05,53.2162,286.0658,63.7935,296.31,4.5645e-05,4.39e-06,0.0,0 STARLINK-4001,1 52628U 22052AG  23121.74773964  .00000439  00000-0  45645-4 0  9994,2 52628  53.2162 286.0658 0000417  63.7935 296.3100 15.08839385 53339,6917.882,95.438,540.036,539.459,0.0
52628.0,STARLINK-4001,PAYLOAD,2023-05-02 09:50:36,15.08837887,5.21e-05,53.2161,283.0923,49.0674,311.0363,9.1746e-05,1.173e-05,0.0,0 STARLINK-4001,1 52628U 22052AG  23122.41014014  .00001173  00000-0  91746-4 0  9992,2 52628  53.2161 283.0923 0000521  49.0674 311.0363 15.08837887 53817,6917.887,95.438,540.112,539.391,0.0
52628.0,STARLINK-4001,PAYLOAD,2023-05-02 19:22:54,15.08843529,4.4e-05,53.216,281.308,61.7995,298.3041,0.0001311,1.8e-05,0.0,0 STARLINK-4001,1 52628U 22052AG  23122.80757563  .00001800  00000-0  13110-3 0  9993,2 52628  53.2160 281.3080 0000440  61.7995 298.3041 15.08843529 53492,6917.87,95.437,540.039,539.43,0.0
52628.0,STARLINK-4001,PAYLOAD,2023-05-03 12:52:09,15.0883755,5.05e-05,53.216,278.038,90.3879,269.7171,-3.8154e-05,-8.95e-06,0.0,0 STARLINK-4001,1 52628U 22052AG  23123.53622604 -.00000895  00000-0 -38154-4 0  9992,2 52628  53.2160 278.0380 0000505  90.3879 269.7171 15.08837550 53605,6917.888,95.438,540.102,539.404,0.0
52628.0,STARLINK-4001,PAYLOAD,2023-05-03 17:38:19,15.08838261,4.59e-05,53.2162,277.1455,59.7085,300.3952,5.319e-05,5.59e-06,0.0,0 STARLINK-4001,1 52628U 22052AG  23123.73494327  .00000559  00000-0  53190-4 0  9995,2 52628  53.2162 277.1455 0000459  59.7085 300.3952 15.08838261 54011,6917.886,95.438,540.068,539.433,0.0
52628.0,STARLINK-4001,PAYLOAD,2023-05-04 12:42:56,15.08838256,4.69e-05,53.2162,273.5771,92.9435,267.1611,4.3468e-05,4.04e-06,0.0,0 STARLINK-4001,1 52628U 22052AG  23124.52982440  .00000404  00000-0  43468-4 0  9997,2 52628  53.2162 273.5771 0000469  92.9435 267.1611 15.08838256 53757,6917.886,95.438,540.075,539.426,0.0
52628.0,STARLINK-4001,PAYLOAD,2023-05-04 17:29:05,15.0884647,4.29e-05,53.2165,272.6841,66.906,293.1978,6.6921e-05,7.78e-06,0.0,0 STARLINK-4001,1 52628U 22052AG  23124.72853871  .00000778  00000-0  66921-4 0  9997,2 52628  53.2165 272.6841 0000429  66.9060 293.1978 15.08846470 53784,6917.861,95.437,540.022,539.429,0.0
52628.0,STARLINK-4001,PAYLOAD,2023-05-05 09:22:57,15.08836462,3.69e-05,53.2161,269.7112,74.818,285.2853,0.00010394,1.367e-05,0.0,0 STARLINK-4001,1 52628U 22052AG  23125.39094381  .00001367  00000-0  10394-3 0  9991,2 52628  53.2161 269.7112 0000369  74.8180 285.2853 15.08836462 54260,6917.891,95.438,540.011,539.501,0.0
52628.0,STARLINK-4001,PAYLOAD,2023-05-05 15:44:29,15.08842975,3.47e-05,53.2161,268.5213,80.6299,279.4732,8.6045e-05,1.082e-05,0.0,0 STARLINK-4001,1 52628U 22052AG  23125.65590041  .00001082  00000-0  86045-4 0  9995,2 52628  53.2161 268.5213 0000347  80.6299 279.4732 15.08842975 53920,6917.871,95.437,539.976,539.496,0.0
52628.0,STARLINK-4001,PAYLOAD,2023-05-06 15:35:16,15.08840881,2.95e-05,53.2153,264.0604,116.4412,243.6611,8.0742e-05,9.98e-06,0.0,0 STARLINK-4001,1 52628U 22052AG  23126.64950159  .00000998  00000-0  80742-4 0  9998,2 52628  53.2153 264.0604 0000295 116.4412 243.6611 15.08840881 54073,6917.878,95.437,539.947,539.539,0.0
52628.0,STARLINK-4001,PAYLOAD,2023-05-07 13:50:41,15.08834571,5.73e-05,53.2159,259.8963,124.6965,235.4081,2.6057e-07,-2.83e-06,0.0,0 STARLINK-4001,1 52628U 22052AG  23127.57686810 -.00000283  00000-0  26057-6 0  9990,2 52628  53.2159 259.8963 0000573 124.6965 235.4081 15.08834571 54217,6917.897,95.438,540.158,539.366,0.0
52628.0,STARLINK-4001,PAYLOAD,2023-05-07 15:26:04,15.0883813,6.16e-05,53.2157,259.5995,142.3773,217.7263,5.3806e-06,-2.02e-06,0.0,0 STARLINK-4001,1 52628U 22052AG  23127.64310553 -.00000202  00000-0  53806-5 0  9998,2 52628  53.2157 259.5995 0000616 142.3773 217.7263 15.08838130 54602,6917.886,95.438,540.177,539.325,0.0
52628.0,STARLINK-4001,PAYLOAD,2023-05-08 15:16:50,15.08843667,2.95e-05,53.2156,255.1413,89.0264,271.0762,0.0001439,2.004e-05,0.0,0 STARLINK-4001,1 52628U 22052AG  23128.63669991  .00002004  00000-0  14390-3 0  9995,2 52628  53.2156 255.1413 0000295  89.0264 271.0762 15.08843667 54757,6917.869,95.437,539.938,539.53,0.0
52628.0,STARLINK-4001,PAYLOAD,2023-05-09 13:32:15,15.08834928,4.13e-05,53.2164,250.9757,61.5501,298.5532,0.00010401,1.368e-05,0.0,0 STARLINK-4001,1 52628U 22052AG  23129.56406801  .00001368  00000-0  10401-3 0  9998,2 52628  53.2164 250.9757 0000413  61.5501 298.5532 15.08834928 54514,6917.896,95.438,540.047,539.475,0.0
52628.0,STARLINK-4001,PAYLOAD,2023-05-10 11:47:41,15.08694713,0.0001244,53.2172,246.819,85.9057,274.2078,0.0018804,0.00029646,0.0,0 STARLINK-4001,1 52628U 22052AG  23130.49145535  .00029646  00000-0  18804-2 0  9999,2 52628  53.2172 246.8190 0001244  85.9057 274.2078 15.08694713 54654,6918.325,95.447,541.05,539.329,0.0
52628.0,STARLINK-4001,PAYLOAD,2023-05-10 13:23:05,15.08692218,0.0001253,53.2176,246.5216,83.1239,276.9896,0.001926,0.00030373,0.0,0 STARLINK-4001,1 52628U 22052AG  23130.55769976  .00030373  00000-0  19260-2 0  9993,2 52628  53.2176 246.5216 0001253  83.1239 276.9896 15.08692218 55045,6918.332,95.447,541.064,539.33,0.0
52628.0,STARLINK-4001,PAYLOAD,2023-05-10 22:55:21,15.08846576,5.03e-05,53.217,244.7322,72.193,287.9117,4.4606e-06,-2.17e-06,0.0,0 STARLINK-4001,1 52628U 22052AG  23130.95510512 -.00000217  00000-0  44606-5 0  9997,2 52628  53.2170 244.7322 0000503  72.1930 287.9117 15.08846576 54720,6917.86,95.437,540.073,539.377,0.0
52628.0,STARLINK-4001,PAYLOAD,2023-05-11 11:38:26,15.08829075,8.31e-05,53.2176,242.3545,130.8592,229.2472,0.00016061,2.269e-05,0.0,0 STARLINK-4001,1 52628U 22052AG  23131.48503341  .00002269  00000-0  16061-3 0  9998,2 52628  53.2176 242.3545 0000831 130.8592 229.2472 15.08829075 55186,6917.914,95.438,540.354,539.204,0.0
52628.0,STARLINK-4001,PAYLOAD,2023-05-11 13:13:49,15.0884483,4.79e-05,53.2175,242.054,105.0106,255.0939,-1.1345e-05,-4.68e-06,0.0,0 STARLINK-4001,1 52628U 22052AG  23131.55126950 -.00000468  00000-0 -11345-4 0  9995,2 52628  53.2175 242.0540 0000479 105.0106 255.0939 15.08844830 55192,6917.866,95.437,540.062,539.399,0.0
52628.0,STARLINK-4001,PAYLOAD,2023-05-11 14:49:12,15.08847642,8.64e-05,53.218,241.759,51.8235,308.2835,2.1532e-05,5.5e-07,0.0,0 STARLINK-4001,1 52628U 22052AG  23131.61750871  .00000055  00000-0  21532-4 0  9996,2 52628  53.2180 241.7590 0000864  51.8235 308.2835 15.08847642 54827,6917.857,95.437,540.32,539.124,0.0
52628.0,STARLINK-4001,PAYLOAD,2023-05-12 00:21:31,15.08841802,6.7e-05,53.2169,239.978,75.0256,285.081,7.4661e-05,9.01e-06,0.0,0 STARLINK-4001,1 52628U 22052AG  23132.01494915  .00000901  00000-0  74661-4 0  9996,2 52628  53.2169 239.9780 0000670  75.0256 285.0810 15.08841802 54883,6917.875,95.437,540.203,539.276,0.0
52628.0,STARLINK-4001,PAYLOAD,2023-05-12 14:39:59,15.08845074,4.96e-05,53.2168,237.298,83.5607,276.5441,8.7197e-05,1.101e-05,0.0,0 STARLINK-4001,1 52628U 22052AG  23132.61110706  .00001101  00000-0  87197-4 0  9996,2 52628  53.2168 237.2980 0000496  83.5607 276.5441 15.08845074 55358,6917.865,95.437,540.073,539.387,0.0
52628.0,STARLINK-4001,PAYLOAD,2023-05-13 12:55:23,15.08849739,4.89e-05,53.2162,233.1344,78.1591,281.9456,-6.5609e-06,-3.92e-06,0.0,0 STARLINK-4001,1 52628U 22052AG  23133.53846513 -.00000392  00000-0 -65609-5 0  9998,2 52628  53.2162 233.1344 0000489  78.1591 281.9456 15.08849739 55117,6917.851,95.437,540.054,539.377,0.0
52628.0,STARLINK-4001,PAYLOAD,2023-05-14 00:03:05,15.08847061,4.11e-05,53.2153,231.057,54.1345,305.9686,-2.9278e-05,-7.54e-06,0.0,0 STARLINK-4001,1 52628U 22052AG  23134.00214552 -.00000754  00000-0 -29278-4 0  9996,2 52628  53.2153 231.0570 0000411  54.1345 305.9686 15.08847061 55568,6917.859,95.437,540.008,539.439,0.0
52628.0,STARLINK-4001,PAYLOAD,2023-05-14 12:46:11,15.08838145,7.2e-05,53.217,228.6741,86.2028,273.9046,-5.5691e-05,-1.174e-05,0.0,0 STARLINK-4001,1 52628U 22052AG  23134.53207410 -.00001174  00000-0 -55691-4 0  9994,2 52628  53.2170 228.6741 0000720  86.2028 273.9046 15.08838145 55642,6917.886,95.438,540.249,539.253,0.0
52628.0,STARLINK-4001,PAYLOAD,2023-05-14 15:56:57,15.08839302,7.06e-05,53.2172,228.0785,89.3347,270.7726,-2.6569e-05,-7.1e-06,0.0,0 STARLINK-4001,1 52628U 22052AG  23134.66455291 -.00000710  00000-0 -26569-4 0  9997,2 52628  53.2172 228.0785 0000706  89.3347 270.7726 15.08839302 55284,6917.883,95.438,540.236,539.259,0.0
52628.0,STARLINK-4001,PAYLOAD,2023-05-15 12:36:57,15.08844404,6.81e-05,53.2164,224.2135,71.7502,288.3564,-1.7043e-05,-5.59e-06,0.0,0 STARLINK-4001,1 52628U 22052AG  23135.52567093 -.00000559  00000-0 -17043-4 0  9995,2 52628  53.2164 224.2135 0000681  71.7502 288.3564 15.08844404 55411,6917.867,95.437,540.203,539.261,0.0
52628.0,STARLINK-4001,PAYLOAD,2023-05-16 10:52:22,15.08828963,6.56e-05,53.2164,220.0503,65.4946,294.6115,9.6605e-05,1.25e-05,0.0,0 STARLINK-4001,1 52628U 22052AG  23136.45303974  .00001250  00000-0  96605-4 0  9992,2 52628  53.2164 220.0503 0000656  65.4946 294.6115 15.08828963 55939,6917.914,95.438,540.233,539.325,0.0
52628.0,STARLINK-4001,PAYLOAD,2023-05-16 15:38:31,15.08828729,7.84e-05,53.2162,219.1586,60.9723,299.1348,0.00017043,2.425e-05,0.0,0 STARLINK-4001,1 52628U 22052AG  23136.65175916  .00002425  00000-0  17043-3 0  9990,2 52628  53.2162 219.1586 0000784  60.9723 299.1348 15.08828729 55581,6917.915,95.438,540.322,539.237,0.0
